[{"OBJECT_NAME":"SITRO-AIS 17","OBJECT_ID":"2024-199BG","EPOCH":"2026-03-09T22:41:43.974240","MEAN_MOTION":14.97395626,"ECCENTRICITY":0.0007298,"INCLINATION":97.3319,"RA_OF_ASC_NODE":274.6922,"ARG_OF_PERICENTER":55.1829,"MEAN_ANOMALY":305.008,"EPHEMERIS_TYPE":0,"CLASSIFICATION_TYPE":"U","NORAD_CAT_ID":61789,"ELEMENT_SET_NO":999,"REV_AT_EPOCH":11718,"BSTAR":0.00028776531,"MEAN_MOTION_DOT":3.293e-5,"MEAN_MOTION_DDOT":0},{"OBJECT_NAME":"STARLINK-34085","OBJECT_ID":"2025-102Q","EPOCH":"2026-03-09T12:22:57.883008","MEAN_MOTION":14.98271093,"ECCENTRICITY":0.00030814,"INCLINATION":70.0007,"RA_OF_ASC_NODE":114.9898,"ARG_OF_PERICENTER":264.0355,"MEAN_ANOMALY":96.0453,"EPHEMERIS_TYPE":0,"CLASSIFICATION_TYPE":"U","NORAD_CAT_ID":64036,"ELEMENT_SET_NO":999,"REV_AT_EPOCH":4592,"BSTAR":0.0056196571,"MEAN_MOTION_DOT":0.00067507,"MEAN_MOTION_DDOT":0}]
